STARLINK-2346           
1 47887U 21021AD  26100.25001157 -.00015126  00000+0 -47657-3 0  9998
2 47887  53.1595 134.3954 0001011  93.3195 263.8006 15.31705383  5844
STARLINK-2354           
1 47894U 21021AL  26100.21894690  .00015412  00000+0  51872-3 0  9994
2 47894  53.1505 121.6016 0001999  28.5935 331.5175 15.30984267281012
STARLINK-2355           
1 47895U 21021AM  26100.04074611  .00001441  00000+0  60787-4 0  9992
2 47895  53.1597 122.5292 0001376  87.1215 272.9944 15.30198857281026
STARLINK-2356           
1 47896U 21021AN  26100.25001157 -.00007174  00000+0 -21963-3 0  9994
2 47896  53.1596 134.3798 0001403  80.7514 147.8361 15.31700901  5858
STARLINK-2358           
1 47898U 21021AQ  26100.25001157 -.00011475  00000+0 -35854-3 0  9999
2 47898  53.1592 121.5078 0001298  89.0844  53.5433 15.31702419  5708
STARLINK-2361           
1 47901U 21021AT  26100.30515272  .00051165  00000+0  15902-2 0  9997
2 47901  53.1566 108.3414 0003172  67.0132 293.1205 15.32863948281262
STARLINK-2363           
1 47903U 21021AV  26100.25716863  .00107733  00000+0  83349-3 0  9996
2 47903  53.1579  97.1099 0005449  71.3930 288.7680 15.71069731281768
STARLINK-2364           
1 47904U 21021AW  26100.25001157 -.00006679  00000+0 -20361-3 0  9994
2 47904  53.1585 108.6744 0001336  91.8291 222.0274 15.31705714  5813
STARLINK-2367           
1 47907U 21021AZ  26100.30707358  .00002494  00000+0  98710-4 0  9992
2 47907  53.1568 134.0798 0000981  79.5263 280.5848 15.29355923280862
STARLINK-2370           
1 47910U 21021BC  26100.21350635  .00001471  00000+0  61790-4 0  9990
2 47910  53.1601 121.6954 0001189  98.7694 261.3442 15.30190825281084
STARLINK-2371           
1 47911U 21021BD  26099.40606023  .00000264  00000+0  21035-4 0  9991
2 47911  53.1591 138.3178 0001410 101.9300 258.1859 15.30206140280616
STARLINK-2378           
1 47916U 21021BJ  26100.32147884  .00003225  00000+0  12095-3 0  9990
2 47916  53.1583 108.4322 0001469  91.8532 268.2637 15.30201749281256
STARLINK-2405           
1 47919U 21021BM  26100.25001157 -.00015019  00000+0 -47305-3 0  9995
2 47919  53.1609 134.3798 0001310  70.1207  55.6196 15.31708989  5843
STARLINK-1647           
1 47978U 21024B   26099.96509070  .00108604  00000+0  35581-2 0  9998
2 47978  53.1622 187.1258 0000820 103.8501 256.2591 15.30809175279418
STARLINK-2303           
1 47981U 21024E   26100.22054115  .00001952  00000+0  78013-4 0  9996
2 47981  53.1590 185.9890 0001228 110.1029 250.0104 15.30200564279456
STARLINK-2273           
1 47993U 21024S   26099.86078670  .00057405  00000+0  13521-2 0  9993
2 47993  53.1539 150.1939 0003185  32.9149 327.2055 15.41407218279918
STARLINK-2266           
1 47997U 21024W   26099.44723178  .00004652  00000+0  16905-3 0  9997
2 47997  53.1592 163.8829 0001189  89.9427 270.1710 15.30205133279692
STARLINK-2270           
1 48000U 21024Z   26100.15701810  .00068202  00000+0  19360-2 0  9991
2 48000  53.1284  95.6260 0001764  72.5142 287.6054 15.35600095280651
STARLINK-2153           
1 48009U 21024AJ  26099.50052457  .00008667  00000+0  30441-3 0  9995
2 48009  53.1587 166.2862 0001551  89.3803 270.7376 15.30198277279616
STARLINK-2226           
1 48010U 21024AK  26099.48839590  .00005000  00000+0  18089-3 0  9997
2 48010  53.1586 189.3641 0001314  86.0173 274.0977 15.30188844279285
STARLINK-2285           
1 48019U 21024AU  26100.31109528  .00003645  00000+0  13515-3 0  9994
2 48019  53.1593 159.9840 0001167  80.5253 279.5880 15.30195388279767
STARLINK-2298           
1 48022U 21024AX  26099.94139728  .00063300  00000+0  13802-2 0  9991
2 48022  53.1250 185.7843 0002132  28.0151 332.0970 15.43671865279429
STARLINK-2292           
1 48023U 21024AY  26100.21448038  .00017634  00000+0  48678-3 0  9991
2 48023  53.1210 185.1600 0002022  39.1920 320.9229 15.37179013279453
STARLINK-2299           
1 48029U 21024BE  26100.25001157  .00757606  00000+0  17993-1 0  9992
2 48029  53.1183 185.1744 0001290 109.4328 121.4171 15.38990461  5788
STARLINK-2404           
1 48093U 21027B   26100.26138372  .00100885  00000+0  32716-2 0  9999
2 48093  53.1617   8.2922 0000804  94.9091 265.2002 15.31179619277495
STARLINK-2412           
1 48094U 21027C   26100.00568042  .00000493  00000+0  28760-4 0  9993
2 48094  53.1596  19.8170 0000592 108.3068 251.7998 15.30196749277310
STARLINK-2414           
1 48095U 21027D   26100.14685410 -.00000302  00000+0  19195-5 0  9991
2 48095  53.1616  19.1944 0001006  99.0025 261.1090 15.30183703277343
STARLINK-2417           
1 48096U 21027E   26100.15003279  .00010461  00000+0  36449-3 0  9995
2 48096  53.1626  19.4665 0001462  86.6156 273.5012 15.30229309277323
STARLINK-2418           
1 48097U 21027F   26100.25001157  .00100618  00000+0  32164-2 0  9993
2 48097  53.1597   6.3346 0001083  83.2311 139.7257 15.31642855  5540
STARLINK-2421           
1 48098U 21027G   26100.30338383  .00216105  00000+0  69261-2 0  9991
2 48098  53.1601   8.0990 0001287 110.5539 249.5600 15.30996726277498
STARLINK-2428           
1 48099U 21027H   26100.05366714  .00003590  00000+0  13326-3 0  9997
2 48099  53.1626  22.1121 0001238  87.1822 272.9320 15.30203294277275
STARLINK-2430           
1 48100U 21027J   26100.02725910  .00008394  00000+0  29534-3 0  9999
2 48100  53.1615   6.9258 0001079  90.6612 269.4513 15.30184277277483
STARLINK-2436           
1 48101U 21027K   26100.17110595  .00000531  00000+0  30067-4 0  9992
2 48101  53.1621   8.7187 0001206 101.4940 258.6197 15.30192931277483
STARLINK-2439           
1 48104U 21027N   26100.05785313  .00001626  00000+0  67028-4 0  9991
2 48104  53.1620   7.0630 0001131  97.0385 263.0745 15.30183654277492
STARLINK-2440           
1 48105U 21027P   26100.29045245  .00002040  00000+0  80995-4 0  9990
2 48105  53.1584 314.2222 0001124 107.0458 253.0666 15.30200806278241
STARLINK-2442           
1 48106U 21027Q   26100.00911592  .00003364  00000+0  12884-3 0  9998
2 48106  53.1587   6.8015 0002125  92.8086 267.3157 15.29363682277487
STARLINK-2443           
1 48107U 21027R   26100.05466049  .00000475  00000+0  28180-4 0  9993
2 48107  53.1608   6.8936 0001227  77.1379 282.9759 15.30187853277484
STARLINK-2448           
1 48111U 21027V   26099.98320497  .00050523  00000+0  14795-2 0  9997
2 48111  53.1588   9.0407 0003374 159.9081 200.2055 15.34754487277465
STARLINK-2449           
1 48112U 21027W   26100.25001157  .00061530  00000+0  19799-2 0  9999
2 48112  53.1603  21.1975 0001332  82.7538 274.2391 15.31673746  5852
STARLINK-2450           
1 48113U 21027X   26100.19214438  .00001797  00000+0  72778-4 0  9998
2 48113  53.1603  18.9616 0001273  86.9426 273.1720 15.30194815277326
STARLINK-2452           
1 48115U 21027Z   26100.21022488  .00197810  00000+0  63013-2 0  9997
2 48115  53.1631   8.5207 0001598  86.9979 273.1206 15.31277616277470
STARLINK-2454           
1 48116U 21027AA  26100.18583043  .00002062  00000+0  81762-4 0  9990
2 48116  53.1608  18.9697 0001295  89.0814 271.0335 15.30187378277338
STARLINK-2455           
1 48117U 21027AB  26100.16102319  .00011494  00000+0  39924-3 0  9993
2 48117  53.1595   6.2973 0001112  85.1267 274.9861 15.30227556277506
STARLINK-2459           
1 48119U 21027AD  26100.25001157  .00039888  00000+0  12908-2 0  9992
2 48119  53.1592   5.8328 0001213  80.2320  38.3970 15.31686688  5803
STARLINK-2460           
1 48120U 21027AE  26100.16381112  .00012362  00000+0  42915-3 0  9996
2 48120  53.1615  21.6098 0001986 132.5697 227.5471 15.30174580277302
STARLINK-2462           
1 48121U 21027AF  26100.17529404  .00008920  00000+0  31264-3 0  9996
2 48121  53.1601   8.6838 0001085  83.6580 276.4545 15.30229335277474
STARLINK-2464           
1 48123U 21027AH  26100.15893948  .00000215  00000+0  19377-4 0  9994
2 48123  53.1617   6.3611 0001417  89.6080 270.5084 15.30191958277503
STARLINK-2465           
1 48124U 21027AJ  26100.18480620 -.00000034  00000+0  10998-4 0  9997
2 48124  53.1630   8.6637 0001443  79.0217 281.0946 15.30186116277476
STARLINK-2466           
1 48125U 21027AK  26100.01200650 -.00000942  00000+0 -19681-4 0  9990
2 48125  53.1606  19.8027 0001789  86.5587 273.5619 15.30191760277309
STARLINK-2467           
1 48126U 21027AL  26100.25001157  .00046192  00000+0  14921-2 0  9993
2 48126  53.1588   5.8829 0001304  74.6770 277.1680 15.31677142  5557
STARLINK-2468           
1 48127U 21027AM  26100.18892972  .00129986  00000+0  42926-2 0  9998
2 48127  53.1603  19.0967 0000929 121.5616 238.5476 15.30441487277330
STARLINK-2469           
1 48128U 21027AN  26100.01856051  .00015728  00000+0  72839-3 0  9994
2 48128  53.1088 317.5909 0000909 149.1851 210.9198 15.20283438278161
STARLINK-2471           
1 48129U 21027AP  26100.19844200  .00031342  00000+0  10618-2 0  9993
2 48129  53.1611  19.2139 0001695 112.8864 247.2316 15.30325094277338
STARLINK-2472           
1 48130U 21027AQ  26100.01255194  .00030751  00000+0  10414-2 0  9991
2 48130  53.1608  22.7015 0001706  79.9597 280.1596 15.30344262277274
STARLINK-2473           
1 48131U 21027AR  26100.05148864 -.00001007  00000+0 -21869-4 0  9993
2 48131  53.1603   6.8369 0001542  87.2035 272.9143 15.30184695277484
STARLINK-2474           
1 48132U 21027AS  26100.01755670  .00031238  00000+0  10532-2 0  9999
2 48132  53.1624  22.2783 0001937  65.0827 295.0375 15.30480062277267
STARLINK-2475           
1 48133U 21027AT  26100.15950263  .00001900  00000+0  76333-4 0  9996
2 48133  53.1633  19.1551 0001975  98.1563 261.9662 15.30174536277337
STARLINK-2476           
1 48134U 21027AU  26100.25001157  .00063620  00000+0  20465-2 0  9997
2 48134  53.1589  18.6649 0001566  88.3052 167.7065 15.31668055  5828
